#dP2020 11 14  0  0  0.00000000      97 __u+U IGS14 FIT  IAC
## 2131 518400.00000000   900.00000000 59167 0.0000000000000
+  121   C01C02C03C04C05C06C07C08C09C10C11C12C13C14C16C19C20
+        C21C22C23C24C25C26C27C28C29C30C32C33C34C35C36C37C39
+        C40C43C44C45C46C60E01E02E03E04E05E07E08E09E11E12E13
+        E14E15E18E19E21E24E25E26E27E30E31E33E36G01G02G03G04
+        G05G06G07G08G09G10G11G12G13G15G16G17G18G19G20G21G22
+        G23G24G25G26G27G28G29G30G31G32J01J02J03J07R01R02R03
+        R04R05R07R08R09R11R12R13R14R15R16R17R18R19R20R21R22
+        R23R24  0  0  0  0  0  0  0  0  0  0  0  0  0  0  0
++        13 12 14 13 13  8  8  8  8  8  7  7  8  7  8  7  7
++         7  7  7  7  7  7  7  7  8  7  7  7  7  8  8  7  9
++         9  9  9 11  9 13  4  4  4  4  4  3  4  4  4  4  4
++         4  4  4  4  4  4  4  4  4  4  4  4  5  3  5  3  3
++         3  3  3  3  3  3  3  3  3  3  3  3  3  3  3  4  3
++         3  3  3  3  3  3  3  5  3  3  9 10  9  0  6  5  5
++         6  5  5  5  5  5  5  6  5  5  6  5  5  6  6  5  6
++         5  5  0  0  0  0  0  0  0  0  0  0  0  0  0  0  0
%c M  cc GPS ccc cccc cccc cccc cccc ccccc ccccc ccccc ccccc
%c cc cc ccc ccc cccc cccc cccc cccc ccccc ccccc ccccc ccccc
%f  1.2500000  1.025000000  0.00000000000  0.000000000000000
%f  0.0000000  0.000000000  0.00000000000  0.000000000000000
%i    0    0    0    0      0      0      0      0         0
%i    0    0    0    0      0      0      0      0         0
/* INFORMATION & ANALYSIS CENTER (IAC)            FINAL DATA
/* S/V CLOCKS ARE ALIGNED TO GNSS TIME                      
/* G:C1WC2W R:C1PC2P E:C1XC5X C:C2IC6I J:C1CC2S             
/* PCV:IGS14_2131 OL/AL:FES2004  NONE     YN ORB:CoN CLK:CoN
*  2020 11 14 11 45  0.00000000
PC01 -34389.549484  24446.085619    472.327873   -727.768490
PC02   4435.953991  41895.141665   -805.277930    740.828041
PC03 -14679.837137  39503.129439  -1308.121006    219.257192
PC04 -39658.317582  14399.825433   -114.658473     10.936942
PC05  21809.838423  36058.287548   -823.025643   -334.423706
PC06 -22968.471940  34331.233670   7570.246024    140.995756
PC07  -8893.155190  32212.487590  26242.162678    -38.334335
PC08 -16809.876575  17631.006517 -34401.383291   -696.939418
PC09 -11163.927298  34229.000172  21869.915018    936.427879
PC10   3415.202247  39151.556188  16064.628555   -142.358025
PC11  20135.611224 -18845.570106   4123.274927   -751.229387
PC12  23406.836708  -7283.668376 -13263.151793    609.233748
PC13  -1254.345571  22779.892208 -35361.393231    743.185957
PC14   9748.969444 -18924.919219  18031.882332    244.795052
PC16 -21312.516854  35003.959643   9533.505226   -610.212825
PC19  -3609.170701  25429.425672 -10911.600355    617.925889
PC20 -13609.796318  10839.721979 -21817.632151   -890.149463
PC21  15906.564525  10945.792975  20159.622274   -722.684622
PC22   8690.101776  25694.194140   6606.701444   -791.588306
PC23 -14572.468600 -17870.071692 -15714.686896   -914.220548
PC24  22520.938435  -3382.117200 -16109.016875   -721.793983
PC25   4683.947917 -15496.587195 -22732.436158   -826.580084
PC26  26371.318589   9012.655888   -979.280459    904.327459
PC27 -19910.486494  -1588.010678  19469.264484    432.637837
PC28  -4427.500525 -16097.960714  22364.559568   -146.075063
PC29 -12783.234532  21640.828137 -12131.973749    311.106671
PC30 -23241.352841  14381.707496   5594.419299    403.686923
PC32 -15989.512233 -10843.032846 -20130.862371   -888.374657
PC33   3568.100033 -25389.628764  10997.685510   -837.089234
PC34  23181.503420 -14725.259067  -5010.803323   -809.129989
PC35   4784.743664  16126.464129 -22261.381942   -560.341226
PC36  -5391.102036  15261.137004  22761.229188   -837.713033
PC37 -26029.534420 -10092.141303    264.599732   -876.878252
PC39 -16077.076199  36680.031798  12964.110188     25.138861
PC40  -1607.171576  36818.082550  20644.556725    100.908357
PC43  13209.940160 -21600.962420  11750.411486   -461.646844
PC44  19937.726065   1179.139810 -19503.024782   -116.944899
PC45  14652.650926  17750.383161  15770.749571    282.251540
PC46 -22080.655433   3875.942437  16655.179111    545.484008
PC60   7287.125810  41526.072225   -708.948388     -0.567958
PE01  -7734.727706  15426.244902  24056.613162   -982.511193
PE02   7611.069438 -15525.569606 -24020.956025    176.344663
PE03  13289.575617 -25469.040910   7094.945984   -364.917745
PE04   -387.908519  27441.624698  11087.833238   -647.627800
PE05  18591.687721  -8530.107243  21387.631897   -329.509795
PE07 -12996.788836 -13230.338600 -23070.459004   -461.751054
PE08     73.673079 -27317.886893 -11389.017005   6091.835316
PE09  12994.922294  13006.075556  23196.138545   5865.583908
PE11  22012.074012   7291.191395 -18403.396807   6829.875826
PE12   1562.645874  16253.931597 -24684.283584   5506.722673
PE13 -21773.565217  -7358.302632  18664.137778    406.404824
PE14 -13286.600418  25790.135412  -4289.236977  -1225.145395
PE15  -1745.838253 -16151.952073  24752.944428    843.809969
PE18  20285.914254 -17289.272889  -8031.221333  -1338.385187
PE19 -14358.992574  24194.988988  -9198.417697    128.142256
PE21 -20871.385705  -2009.647246  20901.295232   -631.905935
PE24  21977.002652  19167.798439  -5002.523950   -582.638958
PE25  20929.717272   2170.878406 -20802.829464   -520.217548
PE26 -28983.146171   5967.759020   1007.758808   2497.225109
PE27 -22235.890712 -18760.786548   5500.606104     92.967195
PE30  -9855.370654 -24409.419344 -13554.106970   3424.773231
PE31  10505.806346  24396.409035  13072.071210   -475.690462
PE33 -19312.916519  15436.824718 -16270.266350   -463.369657
PE36  28986.975304  -5755.956338  -1603.849431    481.107422
PG01  11521.210474  13600.116869 -20037.106129    807.586378
PG02  11557.126137 -14457.492387  19693.303516   -542.389384
PG03  12957.355816  23247.482372   -123.024085     -3.589879
PG04   4428.195954  17905.493497  19097.390652   -155.217213
PG05   1867.757546 -20124.713271  16984.050297    -25.864130
PG06  24057.941407  -6100.014726   9568.925515     -0.962706
PG07  24479.938022   6822.241236   8858.224818   -414.093107
PG08  -3041.584189  22958.963478 -12739.795008    -55.067363
PG09  13864.413476   6673.798764  21585.408884   -289.401167
PG10 -16968.782361  -1480.546482 -20354.079455   -504.370236
PG11   1463.286636  17159.363255 -20744.703179   -108.983896
PG12  -9597.623676 -24724.307647  -2772.408788     40.494910
PG13  12297.772069 -22662.637833  -6249.033150     64.789878
PG15   -634.332750 -22935.562761 -13412.522700   -190.088515
PG16  -3357.923508  20017.764443  16656.822021   -236.316406
PG17  19057.176500 -11402.386948 -14110.042634    353.749122
PG18 -25026.909386  -5678.034388   6949.518006    321.179708
PG19  19397.697906 -15714.344267  -9236.497348    -78.463612
PG20 -20499.227832 -11735.964152 -12470.791134    526.024767
PG21   1296.812311  14937.378417 -21204.372334     68.108823
PG22   9120.260814  23651.519012  -7993.427645   -730.104723
PG23 -18857.557177 -11584.815139 -14734.368265    100.103484
PG24  -7947.802847 -14902.422412 -20793.221937      6.452257
PG25 -17149.102415 -18525.166449   8444.364395     21.977710
PG26 -11692.123817  10497.734195  21359.522194    311.565429
PG27 -12091.161573  23342.646467  -2226.476173    -13.364884
PG28  15763.566858    832.394597 -20751.073425    655.640228
PG29 -11348.731080  -9347.027093  22082.187054   -236.234799
PG30  26659.362715    428.701486   -925.608019   -335.374871
PG31 -23189.636732   7089.090782  11302.083105    -81.371493
PG32 -18719.007231  11726.968028 -14544.372246      0.344537
PJ01 -21126.923883  28472.701149 -18264.420561   -336.425506
PJ02 -25069.758482  22069.025938  30687.187769     -0.074550
PJ03 -34702.074762  23962.416955   3764.314361     -3.078332
PJ07      0.000000      0.000000      0.000000 999999.999999
PR01  -1133.400382 -25299.970284  -3013.224138     70.582357
PR02  -9201.731060 -12209.720668 -20406.042198    454.343844
PR03 -10720.334350   7083.872828 -21992.446347     25.548429
PR04  -5980.270417  22134.860629 -11151.564358     61.515118
PR05   1929.532961  24709.520432   5978.448408     61.085695
PR07  10677.134371  -7820.690957  21842.313778    -41.334468
PR08   6083.508508 -22127.023828  11205.958258    -55.697314
PR09  21983.935832  12990.994417   -648.459525      7.677836
PR11   4509.353101 -10279.040339 -22885.313085    -44.654067
PR12 -11787.139062 -16107.818007 -15867.639804    180.072247
PR13 -21931.863932 -13023.584462    317.244226    -46.633976
PR14 -19067.563304  -2252.675651  16802.988544     57.701078
PR15  -5296.475853   9632.364898  23041.915425    106.731897
PR16  12613.051077  15980.862066  15265.688790     -8.219805
PR17 -23073.294788   9043.246410   6156.952672    373.915812
PR18 -17778.710924  14754.681080 -10744.859481     56.156070
PR19  -4023.315812  12752.772263 -21720.949562   -119.655973
PR20  15108.599896   2660.869805 -20378.679448   -426.554260
PR21  23082.024789  -9547.731550  -5074.445290   -166.080310
PR22  17146.085598 -14804.530894  11802.156323    -81.831457
PR23  -3882.470654  -9700.575060  23265.789355    344.797574
PR24 -15859.000545  -2421.372749  19859.626394     20.492110
EOF
